DMSP 5D-3 F16 (USA 172) 
1 28054U 03048A   26169.22702862 -.00000031  00000+0  74642-5 0  9999
2 28054  98.9890 193.0623 0007796 137.5448 290.5903 14.14483192169639
METEOSAT-9 (MSG-2)      
1 28912U 05049B   26168.83963522  .00000114  00000+0  00000+0 0  9995
2 28912   9.3634  54.1628 0001660 344.5140 215.3198  1.00272435  7009
DMSP 5D-3 F17 (USA 191) 
1 29522U 06050A   26169.30107708 -.00000015  00000+0  14717-4 0  9991
2 29522  98.7378 175.8484 0011136  56.4810 303.7426 14.14993091 12589
FENGYUN 3A              
1 32958U 08026A   26168.82264941  .00000055  00000+0  46601-4 0  9992
2 32958  98.6883 109.6439 0009615 121.9890 238.2222 14.19571285935498
GOES 14                 
1 35491U 09033A   26169.28120486 -.00000302  00000+0  00000+0 0  9996
2 35491   1.6937  83.0286 0001800  11.7638  54.1600  1.00110536  6607
DMSP 5D-3 F18 (USA 210) 
1 35951U 09057A   26169.27253036  .00000226  00000+0  14030-3 0  9996
2 35951  98.9038 150.0392 0009914 246.0587 113.9548 14.14897369859743
EWS-G2 (GOES 15)        
1 36411U 10008A   26169.20649959  .00000013  00000+0  00000+0 0  9994
2 36411   1.2813  82.8263 0004809  42.3031 279.3564  1.00266109 59640
COMS 1                  
1 36744U 10032A   26169.14747284  .00000070  00000+0  00000+0 0  9996
2 36744   4.8083  75.3434 0011542  11.9093 301.8413  0.99162666 51091
FENGYUN 3B              
1 37214U 10059A   26169.30859728 -.00000073  00000+0 -14488-4 0  9998
2 37214  98.9613 215.3283 0021974 180.7663 315.4874 14.14840851807589
SUOMI NPP               
1 37849U 11061A   26169.25686226  .00000053  00000+0  46033-4 0  9998
2 37849  98.7953 110.1256 0001474   4.2138 355.9050 14.19517581758597
METEOSAT-10 (MSG-3)     
1 38552U 12035B   26167.91989406 -.00000009  00000+0  00000+0 0  9990
2 38552   4.6715  61.0232 0001486 328.8582 206.8187  1.00276823 50856
METOP-B                 
1 38771U 12049A   26169.31588593  .00000084  00000+0  58123-4 0  9992
2 38771  98.6504 220.7926 0002168  16.8348 343.2901 14.21433023713427
INSAT-3D                
1 39216U 13038B   26169.27895152 -.00000346  00000+0  00000+0 0  9991
2 39216   1.9297  82.5264 0000592 315.6597  98.2537  1.00268706 47094
FENGYUN 3C              
1 39260U 13052A   26169.24526400  .00000070  00000+0  56725-4 0  9993
2 39260  98.4987 143.0715 0015201  24.6978 335.4922 14.15755245658717
METEOR-M 2              
1 40069U 14037A   26169.27184311  .00000505  00000+0  25032-3 0  9999
2 40069  98.5114 144.9723 0006727  41.4364 318.7323 14.21463025619475
HIMAWARI-8              
1 40267U 14060A   26169.28111818 -.00000282  00000+0  00000+0 0  9995
2 40267   0.0104  35.5160 0001047  55.3354  57.5398  1.00271304 42778
FENGYUN 2G              
1 40367U 14090A   26168.77395412 -.00000310  00000+0  00000+0 0  9998
2 40367   5.6410  72.8081 0004012 158.0009  53.5218  1.00271765 42003
METEOSAT-11 (MSG-4)     
1 40732U 15034A   26168.25712117  .00000060  00000+0  00000+0 0  9992
2 40732   3.2014  71.1096 0001741  11.8883 284.7520  1.00280400  7217
ELEKTRO-L 2             
1 41105U 15074A   26169.03651196 -.00000126  00000+0  00000+0 0  9991
2 41105   6.6975  70.5132 0000903 256.1704 298.2263  1.00270556 38516
SENTINEL-3A             
1 41335U 16011A   26169.26849957  .00000094  00000+0  56985-4 0  9998
2 41335  98.6249 236.6367 0001409 101.6775 258.4564 14.26740305538215
INSAT-3DR               
1 41752U 16054A   26169.12533111 -.00000082  00000+0  00000+0 0  9995
2 41752   0.1091  86.2543 0010554 187.5826 111.6196  1.00270980 35822
HIMAWARI-9              
1 41836U 16064A   26169.28111818 -.00000281  00000+0  00000+0 0  9993
2 41836   0.0137 285.7929 0000964 205.1431  17.5479  1.00270431 35225
GOES 16                 
1 41866U 16071A   26169.30249755 -.00000097  00000+0  00000+0 0  9994
2 41866   0.3450  85.5148 0000237 324.1136 221.1192  1.00271125 35119
FENGYUN 4A              
1 41882U 16077A   26168.99263307 -.00000364  00000+0  00000+0 0  9998
2 41882   2.3256  80.2790 0008585 153.3107 153.7451  1.00268223 34934
CYGFM05                 
1 41884U 16078A   26168.62835141  .00019269  00000+0  26108-3 0  9996
2 41884  34.9565 257.6688 0007010 155.8630 204.2424 15.56688646528825
CYGFM04                 
1 41885U 16078B   26168.53365447  .00023569  00000+0  26530-3 0  9991
2 41885  34.9311 225.9685 0006748 198.5401 161.5079 15.61530426529052
CYGFM02                 
1 41886U 16078C   26169.23555444  .00026709  00000+0  26660-3 0  9991
2 41886  34.9389 215.7895 0007878 205.7599 154.2736 15.64559304529331
CYGFM01                 
1 41887U 16078D   26169.32198764  .00018822  00000+0  24841-3 0  9996
2 41887  34.9391 254.1234 0006860 155.9818 204.1228 15.57393414528889
CYGFM08                 
1 41888U 16078E   26169.27952165  .00021787  00000+0  25942-3 0  9991
2 41888  34.9417 233.9547 0008529 187.5522 172.5075 15.60068527529144
CYGFM07                 
1 41890U 16078G   26168.53473553  .00021393  00000+0  25426-3 0  9991
2 41890  34.9433 227.2545 0007144 197.5321 162.5158 15.60133044529057
CYGFM03                 
1 41891U 16078H   26169.20960635  .00022144  00000+0  26292-3 0  9996
2 41891  34.9386 224.6981 0006686 191.6339 168.4232 15.60157676529138
